{
  "type": "FeatureCollection",
  "features": [
    {
      "type": "Feature",
      "properties": {
        "norad_id": 37284,
        "name": "COSMOS 2251 DEB",
        "group": "cosmos-2251-debris",
        "lat": -12.558328056661738,
        "lon": -26.185698682083554,
        "alt_km": 888.5503546965892,
        "timestamp": "2025-12-16T10:53:45.868711+00:00",
        "meta_object_name": "COSMOS 2251 DEB",
        "meta_object_id": "1993-036BHY",
        "meta_epoch": "2025-12-10T18:04:20.469216",
        "meta_mean_motion": 14.12686618,
        "meta_eccentricity": 0.01605026,
        "meta_inclination": 74.0123,
        "meta_ra_of_asc_node": 160.2425,
        "meta_arg_of_pericenter": 312.4867,
        "meta_mean_anomaly": 59.8736,
        "meta_ephemeris_type": 0,
        "meta_classification_type": "U",
        "meta_norad_cat_id": 37284,
        "meta_element_set_no": 999,
        "meta_rev_at_epoch": 59147,
        "meta_bstar": 0.001592138,
        "meta_mean_motion_dot": 3.31e-05,
        "meta_mean_motion_ddot": 0,
        "tle_line1": "1 37284U 93036BHY 25344.75301469  .00003310  00000+0  15921-2 0  9994",
        "tle_line2": "2 37284  74.0123 160.2425 0160502 312.4867  59.8736 14.12686618591475"
      },
      "geometry": {
        "type": "Point",
        "coordinates": [
          -26.185698682083554,
          -12.558328056661738
        ]
      }
    },
    {
      "type": "Feature",
      "properties": {
        "norad_id": 37292,
        "name": "COSMOS 2251 DEB",
        "group": "cosmos-2251-debris",
        "lat": -12.252859551195684,
        "lon": -133.1129309352132,
        "alt_km": 1013.2804685392339,
        "timestamp": "2025-12-16T10:53:45.868722+00:00",
        "meta_object_name": "COSMOS 2251 DEB",
        "meta_object_id": "1993-036BJG",
        "meta_epoch": "2025-12-02T14:04:30.366912",
        "meta_mean_motion": 14.03226454,
        "meta_eccentricity": 0.02102512,
        "meta_inclination": 74.129,
        "meta_ra_of_asc_node": 67.3453,
        "meta_arg_of_pericenter": 73.1105,
        "meta_mean_anomaly": 289.2966,
        "meta_ephemeris_type": 0,
        "meta_classification_type": "U",
        "meta_norad_cat_id": 37292,
        "meta_element_set_no": 999,
        "meta_rev_at_epoch": 59706,
        "meta_bstar": 0.0022453288,
        "meta_mean_motion_dot": 4.236e-05,
        "meta_mean_motion_ddot": 0,
        "tle_line1": "1 37292U 93036BJG 25336.58646258  .00004236  00000+0  22453-2 0  9999",
        "tle_line2": "2 37292  74.1290  67.3453 0210251  73.1105 289.2966 14.03226454597064"
      },
      "geometry": {
        "type": "Point",
        "coordinates": [
          -133.1129309352132,
          -12.252859551195684
        ]
      }
    },
    {
      "type": "Feature",
      "properties": {
        "norad_id": 37295,
        "name": "COSMOS 2251 DEB",
        "group": "cosmos-2251-debris",
        "lat": -32.2961968053836,
        "lon": 104.90867105131746,
        "alt_km": 697.8310256147633,
        "timestamp": "2025-12-16T10:53:45.868733+00:00",
        "meta_object_name": "COSMOS 2251 DEB",
        "meta_object_id": "1993-036BJK",
        "meta_epoch": "2025-12-15T12:37:34.902624",
        "meta_mean_motion": 14.65257208,
        "meta_eccentricity": 0.00438072,
        "meta_inclination": 74.0066,
        "meta_ra_of_asc_node": 276.2519,
        "meta_arg_of_pericenter": 94.6332,
        "meta_mean_anomaly": 265.9841,
        "meta_ephemeris_type": 0,
        "meta_classification_type": "U",
        "meta_norad_cat_id": 37295,
        "meta_element_set_no": 999,
        "meta_rev_at_epoch": 82345,
        "meta_bstar": 0.00041801596,
        "meta_mean_motion_dot": 2.254e-05,
        "meta_mean_motion_ddot": 0,
        "tle_line1": "1 37295U 93036BJK 25349.52609841  .00002254  00000+0  41802-3 0  9995",
        "tle_line2": "2 37295  74.0066 276.2519 0043807  94.6332 265.9841 14.65257208823459"
      },
      "geometry": {
        "type": "Point",
        "coordinates": [
          104.90867105131746,
          -32.2961968053836
        ]
      }
    },
    {
      "type": "Feature",
      "properties": {
        "norad_id": 37305,
        "name": "COSMOS 2251 DEB",
        "group": "cosmos-2251-debris",
        "lat": -31.69570450647674,
        "lon": -86.66623117293433,
        "alt_km": 772.7507408030078,
        "timestamp": "2025-12-16T10:53:45.868743+00:00",
        "meta_object_name": "COSMOS 2251 DEB",
        "meta_object_id": "1993-036BJV",
        "meta_epoch": "2025-12-13T12:50:04.816608",
        "meta_mean_motion": 14.36140847,
        "meta_eccentricity": 0.00500253,
        "meta_inclination": 73.8697,
        "meta_ra_of_asc_node": 289.0409,
        "meta_arg_of_pericenter": 249.3262,
        "meta_mean_anomaly": 110.2523,
        "meta_ephemeris_type": 0,
        "meta_classification_type": "U",
        "meta_norad_cat_id": 37305,
        "meta_element_set_no": 999,
        "meta_rev_at_epoch": 66878,
        "meta_bstar": 0.00092453159,
        "meta_mean_motion_dot": 2.706e-05,
        "meta_mean_motion_ddot": 0,
        "tle_line1": "1 37305U 93036BJV 25347.53477797  .00002706  00000+0  92453-3 0  9999",
        "tle_line2": "2 37305  73.8697 289.0409 0050025 249.3262 110.2523 14.36140847668789"
      },
      "geometry": {
        "type": "Point",
        "coordinates": [
          -86.66623117293433,
          -31.69570450647674
        ]
      }
    },
    {
      "type": "Feature",
      "properties": {
        "norad_id": 37312,
        "name": "COSMOS 2251 DEB",
        "group": "cosmos-2251-debris",
        "lat": 36.08596260492966,
        "lon": 5.201274209816981,
        "alt_km": 747.5601652172872,
        "timestamp": "2025-12-16T10:53:45.868753+00:00",
        "meta_object_name": "COSMOS 2251 DEB",
        "meta_object_id": "1993-036BKC",
        "meta_epoch": "2025-12-15T07:40:32.314080",
        "meta_mean_motion": 14.46134941,
        "meta_eccentricity": 0.00183905,
        "meta_inclination": 74.0308,
        "meta_ra_of_asc_node": 199.364,
        "meta_arg_of_pericenter": 302.4306,
        "meta_mean_anomaly": 57.5073,
        "meta_ephemeris_type": 0,
        "meta_classification_type": "U",
        "meta_norad_cat_id": 37312,
        "meta_element_set_no": 999,
        "meta_rev_at_epoch": 86201,
        "meta_bstar": 0.00037323494,
        "meta_mean_motion_dot": 1.309e-05,
        "meta_mean_motion_ddot": 0,
        "tle_line1": "1 37312U 93036BKC 25349.31981845  .00001309  00000+0  37323-3 0  9992",
        "tle_line2": "2 37312  74.0308 199.3640 0018390 302.4306  57.5073 14.46134941862012"
      },
      "geometry": {
        "type": "Point",
        "coordinates": [
          5.201274209816981,
          36.08596260492966
        ]
      }
    },
    {
      "type": "Feature",
      "properties": {
        "norad_id": 37316,
        "name": "COSMOS 2251 DEB",
        "group": "cosmos-2251-debris",
        "lat": -73.88192013161084,
        "lon": -83.8389609724703,
        "alt_km": 610.7325549308125,
        "timestamp": "2025-12-16T10:53:45.868763+00:00",
        "meta_object_name": "COSMOS 2251 DEB",
        "meta_object_id": "1993-036BKG",
        "meta_epoch": "2025-12-15T19:14:39.998976",
        "meta_mean_motion": 14.9462647,
        "meta_eccentricity": 0.00294142,
        "meta_inclination": 74.0202,
        "meta_ra_of_asc_node": 14.893,
        "meta_arg_of_pericenter": 81.8422,
        "meta_mean_anomaly": 278.6097,
        "meta_ephemeris_type": 0,
        "meta_classification_type": "U",
        "meta_norad_cat_id": 37316,
        "meta_element_set_no": 999,
        "meta_rev_at_epoch": 86189,
        "meta_bstar": 0.0011902248,
        "meta_mean_motion_dot": 0.0001299,
        "meta_mean_motion_ddot": 0,
        "tle_line1": "1 37316U 93036BKG 25349.80185184  .00012990  00000+0  11902-2 0  9994",
        "tle_line2": "2 37316  74.0202  14.8930 0029414  81.8422 278.6097 14.94626470861891"
      },
      "geometry": {
        "type": "Point",
        "coordinates": [
          -83.8389609724703,
          -73.88192013161084
        ]
      }
    },
    {
      "type": "Feature",
      "properties": {
        "norad_id": 37320,
        "name": "COSMOS 2251 DEB",
        "group": "cosmos-2251-debris",
        "lat": -11.05560967775986,
        "lon": 34.07030772599806,
        "alt_km": 645.6687485382054,
        "timestamp": "2025-12-16T10:53:45.868774+00:00",
        "meta_object_name": "COSMOS 2251 DEB",
        "meta_object_id": "1993-036BKL",
        "meta_epoch": "2025-12-14T07:41:51.703584",
        "meta_mean_motion": 14.78808328,
        "meta_eccentricity": 0.00469324,
        "meta_inclination": 74.0457,
        "meta_ra_of_asc_node": 215.056,
        "meta_arg_of_pericenter": 301.712,
        "meta_mean_anomaly": 57.9484,
        "meta_ephemeris_type": 0,
        "meta_classification_type": "U",
        "meta_norad_cat_id": 37320,
        "meta_element_set_no": 999,
        "meta_rev_at_epoch": 66170,
        "meta_bstar": 0.00089962437,
        "meta_mean_motion_dot": 6.711e-05,
        "meta_mean_motion_ddot": 0,
        "tle_line1": "1 37320U 93036BKL 25348.32073731  .00006711  00000+0  89962-3 0  9995",
        "tle_line2": "2 37320  74.0457 215.0560 0046932 301.7120  57.9484 14.78808328661707"
      },
      "geometry": {
        "type": "Point",
        "coordinates": [
          34.07030772599806,
          -11.05560967775986
        ]
      }
    }
  ]
}